{
  "norad_id": 68652,
  "name": "QIANFAN GROUP 7 OBJECT S",
  "history": [
    {
      "epoch": "2026-04-15T14:27:46.168416Z",
      "apogee_km": 813.0800383022743,
      "perigee_km": 792.8852935777168,
      "latitude_deg": 7.800156570164688e-05,
      "longitude_deg": -92.91909005306258,
      "height_km": 816.046007212131,
      "semi_major_axis_km": 7181.119665939995,
      "eccentricity": 0.0014061,
      "inclination_deg": 88.9915,
      "raan_deg": 327.7856,
      "arg_perigee_deg": 188.1261,
      "mean_anomaly_deg": 171.9708,
      "mean_motion_rev_day": 14.26640393
    }
  ]
}