QIANFAN GROUP 7 OBJECT S
1 68652U 26075S   26105.60261769  .00001023  00000+0  41747-3 0  9999
2 68652  88.9915 327.7856 0014061 188.1261 171.9708 14.26640393  1143
